NUSAT-1 (FRESCO)        
1 41557U 16033B   23141.88124151  .00065329  00000+0  91695-3 0  9993
2 41557  97.3872 248.7891 0007599 224.0512 136.0138 15.56488837389530
NUSAT-2 (BATATA)        
1 41558U 16033C   23141.92352242  .00078264  00000+0  97142-3 0  9998
2 41558  97.4153 256.6959 0007751 217.3302 142.7417 15.59727324389870
CARTOSAT-2C             
1 41599U 16040A   23141.87171226  .00006718  00000+0  32040-3 0  9997
2 41599  97.4374 202.5275 0014198  86.9081 273.3778 15.19326457383310
SATHYABAMASAT           
1 41600U 16040B   23141.87532254  .00213294  00000+0  16150-2 0  9994
2 41600  97.1572 195.4663 0002885 271.4303  88.6630 15.71751387385104
LAPAN-A3                
1 41603U 16040E   23141.89913299  .00003120  00000+0  13789-3 0  9992
2 41603  97.1671 168.6782 0014146  54.7747 305.4812 15.22325440383493
BIROS                   
1 41604U 16040F   23141.85578008  .00008761  00000+0  31314-3 0  9994
2 41604  97.1644 178.4717 0010864  23.5701 336.6035 15.28992576384072
SWAYAM                  
1 41607U 16040J   23141.92787831  .00122394  00000+0  13841-2 0  9994
2 41607  97.1539 192.3262 0002698 313.1821  46.9212 15.62041772384906
BEESAT-4                
1 41619U 16040W   23141.65762980  .00073325  00000+0  10462-2 0  9990
2 41619  97.1600 191.0889 0002586 337.3495  22.7646 15.56040795372749
3CAT-2                  
1 41732U 16051B   23141.77883162  .00044799  00000+0  76356-3 0  9995
2 41732  97.3929  72.8515 0010317 134.8556 225.3536 15.51181982377385
PRATHAM                 
1 41783U 16059A   23141.84480122  .00000876  00000+0  17500-3 0  9990
2 41783  97.8704 174.1298 0033067 181.4189 178.6926 14.63916125355126
ALSAT 1N                
1 41789U 16059G   23141.92761034  .00001096  00000+0  21028-3 0  9994
2 41789  97.8698 179.5453 0028354 161.5674 198.6564 14.65371068355423
CARTOSAT-2D             
1 41948U 17008A   23141.90245771  .00007285  00000+0  34813-3 0  9991
2 41948  97.4155 201.6391 0005969 207.0452 153.0472 15.19300467347181
NAYIF-1 (EO-88)         
1 42017U 17008BX  23141.72320965  .00176782  00000+0  13972-2 0  9999
2 42017  97.2109 212.0474 0003638 169.2576 190.8765 15.70826756349302
ZHUHAI-1 02 (CAS-4B)    
1 42759U 17034B   23141.78971270  .00011119  00000+0  56205-3 0  9997
2 42759  43.0157 262.3887 0011903 290.1139  69.8428 15.17026659327623
ZHUHAI-1 01 (CAS-4A)    
1 42761U 17034D   23141.80591866  .00010164  00000+0  51445-3 0  9992
2 42761  43.0154 260.8317 0012745 291.4508  68.4980 15.17043732327622
UCLSAT                  
1 42765U 17036A   23141.85901997  .00054741  00000+0  10115-2 0  9990
2 42765  97.1428 181.0303 0007976 167.7336 192.4111 15.48862650329801
NIUSAT                  
1 42766U 17036B   23141.85758295  .00026199  00000+0  69849-3 0  9997
2 42766  97.1582 173.7838 0010749 185.3608 174.7525 15.38074457328567
CARTOSAT-2E             
1 42767U 17036C   23141.91976452  .00007228  00000+0  34512-3 0  9993
2 42767  97.4050 202.0356 0006197 271.6886  88.3639 15.19327882327759
AALTO-1                 
1 42775U 17036L   23141.86543088  .00018311  00000+0  54650-3 0  9991
2 42775  97.1536 172.6856 0010117 188.1021 172.0061 15.34626026328481
URSA MAIOR              
1 42776U 17036M   23141.82968947  .00022718  00000+0  64037-3 0  9999
2 42776  97.1545 173.9131 0010040 183.8560 176.2609 15.36379259328543
COMPASS 2               
1 42777U 17036N   23141.64415913  .00257738  00000+0  15725-2 0  9991
2 42777  97.1412 187.1416 0008036 176.2081 183.9247 15.76640996329330
MAX VALIER SAT          
1 42778U 17036P   23141.82089180  .00024911  00000+0  67301-3 0  9998
2 42778  97.1570 177.3064 0008841 180.6046 179.5190 15.37692908328671
PEGASUS                 
1 42784U 17036V   23141.68026657  .00040361  00000+0  84624-3 0  9993
2 42784  97.1487 179.4565 0008181 174.6594 185.4744 15.45258383328880
NUDTSAT                 
1 42787U 17036Y   23141.35366308  .00847744  32332-3  20435-2 0  9996
2 42787  97.1304 189.5795 0009112 212.5377 147.5339 15.96403141329345
SUCHAI                  
1 42788U 17036Z   23141.85850752  .00074028  00000+0  11445-2 0  9994
2 42788  97.1465 183.0481 0008007 169.8343 190.3074 15.53804612329202
SKCUBE                  
1 42789U 17036AA  23141.65429506  .00050515  00000+0  92127-3 0  9994
2 42789  97.1474 181.4483 0007783 170.1453 189.9953 15.49258443329002
VZLUSAT-1               
1 42790U 17036AB  23141.89574373  .00613778  14823-3  20601-2 0  9990
2 42790  97.1338 189.7454 0008126 200.2631 159.8321 15.90039715329557
ROBUSTA 1B              
1 42792U 17036AD  23141.86494474  .00064547  00000+0  10575-2 0  9993
2 42792  97.1447 182.7913 0007244 166.1858 193.9595 15.52235871329128
D-SAT                   
1 42794U 17036AF  23141.70928645  .00007089  00000+0  56195-3 0  9997
2 42794  97.4640 135.0055 0117793  31.6510 329.1725 14.95462056321974
NORSAT 2                
1 42828U 17042D   23141.89516209  .00005192  00000+0  47261-3 0  9998
2 42828  97.3952 344.1427 0011885 312.6247  47.3972 14.95525809318691
TECHNOSAT               
1 42829U 17042E   23141.86008456  .00002269  00000+0  22022-3 0  9996
2 42829  97.3907 340.8789 0012372 319.3486  40.6810 14.93503704318568
2017-042F               
1 42830U 17042F   23141.79854931  .00012345  00000+0  95228-3 0  9991
2 42830  97.4048 348.2120 0011119 280.1605  79.8366 15.01674721318911
FLYING LAPTOP           
1 42831U 17042G   23141.88469148  .00001625  00000+0  16110-3 0  9996
2 42831  97.3929 341.2167 0012399 320.0995  39.9313 14.93010280318564
CORVUS BC2              
1 42846U 17042X   23141.81788282  .00002520  00000+0  23764-3 0  9996
2 42846  97.3879 344.5446 0007741 307.3132  52.7383 14.94591654318780
CORVUS BC1              
1 42847U 17042Y   23141.87764227  .00002427  00000+0  22860-3 0  9998
2 42847  97.3880 344.9541 0007436 306.6245  53.4292 14.94682993318808
CZ-4C R/B               
1 43012U 17072C   23141.88614138  .00000495  00000+0  11101-3 0  9991
2 43012  98.6486 196.7399 0126504   2.2720 357.9025 14.56721138293124
RADFXSAT (FOX-1B)       
1 43017U 17073E   23141.65399668  .00006550  00000+0  45996-3 0  9997
2 43017  97.6338  27.0463 0235118 156.5264 204.6898 14.85731775297243
EAGLESAT 1              
1 43018U 17073F   23141.96047680  .00012376  00000+0  79069-3 0  9997
2 43018  97.6387  31.0060 0218478 143.7411 217.8844 14.91110242297387
INS-1C                  
1 43116U 18004F   23141.78820824  .00053988  00000+0  98337-3 0  9993
2 43116  97.3368 222.8948 0006092 206.1172 153.9772 15.49292044298287
FLOCK 3P'-3             
1 43119U 18004J   23141.72930818  .00351216  00000+0  34591-2 0  9991
2 43119  97.3221 220.1652 0009993 240.8566 119.1694 15.64812810298122
FLOCK 3P'-2             
1 43120U 18004K   23141.74649084  .00208543  00000+0  30784-2 0  9991
2 43120  97.3329 218.8508 0008788 239.6921 120.3464 15.54590177298025
FLOCK 3P'-4             
1 43122U 18004M   23141.72872733  .00182083  00000+0  29677-2 0  9999
2 43122  97.3351 218.9144 0008413 245.1963 114.8414 15.51933695298017
PICSAT                  
1 43132U 18004X   23141.74885155  .00076186  00000+0  11467-2 0  9998
2 43132  97.3296 224.2780 0005909 204.9290 155.1680 15.54552250298431
CNUSAIL-1               
1 43133U 18004Y   23141.75913249  .00030674  00000+0  72802-3 0  9999
2 43133  97.3282 219.1707 0006016 222.2245 137.8540 15.41637205298131
2018-004Z               
1 43134U 18004Z   23141.74337302  .00050524  00000+0  92657-3 0  9995
2 43134  97.3315 222.2829 0005787 213.5185 146.5701 15.49114668298316
FOX-1D (AO-92)          
1 43137U 18004AC  23141.77678686  .00035345  00000+0  76579-3 0  9993
2 43137  97.3293 220.7171 0005563 217.7385 142.3474 15.44337812298232
XIAOXIANG-2             
1 43155U 18008A   23141.87625379  .00020281  00000+0  81911-3 0  9998
2 43155  97.2999 195.0419 0013845  49.4836 310.7606 15.24707463294646
ZHOU ENLAI              
1 43156U 18008B   23141.89526943  .00023040  00000+0  91753-3 0  9999
2 43156  97.3045 195.1379 0011394  51.2157 309.0097 15.25182343294572
QUANTUTONG 1            
1 43158U 18008D   23141.71395144  .00016596  00000+0  72208-3 0  9991
2 43158  97.3047 192.0187 0011672  55.3383 304.8952 15.22256062294394
S-NET D                 
1 43186U 18014G   23141.70641796  .00003468  00000+0  28081-3 0  9999
2 43186  97.6391  46.0039 0012637 246.4154 113.5743 15.00322105289581
S-NET B                 
1 43187U 18014H   23141.70734555  .00003465  00000+0  28064-3 0  9994
2 43187  97.6377  45.9369 0012841 244.8652 115.1240 15.00311057289586
S-NET A                 
1 43188U 18014J   23141.70751455  .00003469  00000+0  28095-3 0  9991
2 43188  97.6384  46.0227 0012837 244.9848 115.0044 15.00313846289582
S-NET C                 
1 43189U 18014K   23141.70946232  .00003360  00000+0  27237-3 0  9998
2 43189  97.6361  45.9196 0013196 241.7792 118.2099 15.00295183288131
SHAONIAN XING           
1 43199U 18015H   23141.86492464  .00159104  00000+0  13375-2 0  9995
2 43199  97.5438 299.4326 0009158 249.6898 110.3379 15.69339758295688
LUOJIA-1 01             
1 43485U 18048B   23141.86733603  .00002596  00000+0  35980-3 0  9991
2 43485  97.9053 222.4318 0011045 178.3212 181.8039 14.78783938267863
CZ-4B R/B               
1 43656U 18081B   23141.72574847  .00000295  00000+0  10758-3 0  9996
2 43656  99.4444 308.8488 0206588 252.9809 104.8643 14.30825930238726
CUBEBEL-1 (BSUSAT-1)    
1 43666U 18083E   23141.90562805  .00032350  00000+0  90667-3 0  9994
2 43666  97.3818 173.3839 0009584 201.6258 158.4582 15.36494986253162
CHANGSHAGAOXIN (TY 4-01)
1 43669U 18083H   23141.88340959  .00026702  00000+0  82892-3 0  9993
2 43669  97.3808 168.1285 0007181 198.0296 162.0693 15.33330011252914
TEN-KOH                 
1 43677U 18084G   23141.33952682  .00003503  00000+0  34301-3 0  9991
2 43677  98.0099 280.7445 0014050 233.7778 126.2142 14.92897596248058
